[
  {
    "OBJECT_NAME": "ZACUBE-1 (TSHEPISOSAT)",
    "OBJECT_ID": "2013-066B",
    "EPOCH": "2025-06-07T20:21:03.707712",
    "MEAN_MOTION": 14.96637274,
    "ECCENTRICITY": 0.0045945,
    "INCLINATION": 97.7799,
    "RA_OF_ASC_NODE": 115.8696,
    "ARG_OF_PERICENTER": 58.9239,
    "MEAN_ANOMALY": 301.6479,
    "EPHEMERIS_TYPE": 0,
    "CLASSIFICATION_TYPE": "U",
    "NORAD_CAT_ID": 39417,
    "ELEMENT_SET_NO": 999,
    "REV_AT_EPOCH": 62465,
    "BSTAR": 0.00032355,
    "MEAN_MOTION_DOT": 3.707e-05,
    "MEAN_MOTION_DDOT": 0
  },
  {
    "OBJECT_NAME": "GOMX-1",
    "OBJECT_ID": "2013-066Q",
    "EPOCH": "2025-06-07T20:23:29.833440",
    "MEAN_MOTION": 14.67630437,
    "ECCENTRICITY": 0.0131933,
    "INCLINATION": 97.6839,
    "RA_OF_ASC_NODE": 17.6209,
    "ARG_OF_PERICENTER": 197.3964,
    "MEAN_ANOMALY": 162.27,
    "EPHEMERIS_TYPE": 0,
    "CLASSIFICATION_TYPE": "U",
    "NORAD_CAT_ID": 39430,
    "ELEMENT_SET_NO": 999,
    "REV_AT_EPOCH": 61515,
    "BSTAR": 0.0002423,
    "MEAN_MOTION_DOT": 1.518e-05,
    "MEAN_MOTION_DDOT": 0
  },
  {
    "OBJECT_NAME": "CUBEBUG-2 (LO-74)",
    "OBJECT_ID": "2013-066AA",
    "EPOCH": "2025-06-07T19:07:50.457792",
    "MEAN_MOTION": 14.89924059,
    "ECCENTRICITY": 0.0061771,
    "INCLINATION": 97.8495,
    "RA_OF_ASC_NODE": 103.3696,
    "ARG_OF_PERICENTER": 184.4669,
    "MEAN_ANOMALY": 175.6006,
    "EPHEMERIS_TYPE": 0,
    "CLASSIFICATION_TYPE": "U",
    "NORAD_CAT_ID": 39440,
    "ELEMENT_SET_NO": 999,
    "REV_AT_EPOCH": 62237,
    "BSTAR": 0.0002948,
    "MEAN_MOTION_DOT": 2.881e-05,
    "MEAN_MOTION_DDOT": 0
  },
  {
    "OBJECT_NAME": "FUNCUBE-1 (AO-73)",
    "OBJECT_ID": "2013-066AE",
    "EPOCH": "2025-06-07T08:22:35.630400",
    "MEAN_MOTION": 15.0230589,
    "ECCENTRICITY": 0.0043752,
    "INCLINATION": 97.7833,
    "RA_OF_ASC_NODE": 120.2541,
    "ARG_OF_PERICENTER": 37.5017,
    "MEAN_ANOMALY": 322.9246,
    "EPHEMERIS_TYPE": 0,
    "CLASSIFICATION_TYPE": "U",
    "NORAD_CAT_ID": 39444,
    "ELEMENT_SET_NO": 999,
    "REV_AT_EPOCH": 62325,
    "BSTAR": 0.00042356,
    "MEAN_MOTION_DOT": 5.649e-05,
    "MEAN_MOTION_DDOT": 0
  },
  {
    "OBJECT_NAME": "UWE-3",
    "OBJECT_ID": "2013-066AG",
    "EPOCH": "2025-06-07T14:13:46.735392",
    "MEAN_MOTION": 14.92879999,
    "ECCENTRICITY": 0.0054502,
    "INCLINATION": 97.8227,
    "RA_OF_ASC_NODE": 109.5267,
    "ARG_OF_PERICENTER": 124.6724,
    "MEAN_ANOMALY": 235.9649,
    "EPHEMERIS_TYPE": 0,
    "CLASSIFICATION_TYPE": "U",
    "NORAD_CAT_ID": 39446,
    "ELEMENT_SET_NO": 999,
    "REV_AT_EPOCH": 62161,
    "BSTAR": 0.00029366,
    "MEAN_MOTION_DOT": 3.072e-05,
    "MEAN_MOTION_DDOT": 0
  },
  {
    "OBJECT_NAME": "UNISAT-6",
    "OBJECT_ID": "2014-033C",
    "EPOCH": "2025-06-07T20:42:52.374816",
    "MEAN_MOTION": 14.85205148,
    "ECCENTRICITY": 0.0046985,
    "INCLINATION": 97.7416,
    "RA_OF_ASC_NODE": 315.1024,
    "ARG_OF_PERICENTER": 219.0943,
    "MEAN_ANOMALY": 140.6874,
    "EPHEMERIS_TYPE": 0,
    "CLASSIFICATION_TYPE": "U",
    "NORAD_CAT_ID": 40012,
    "ELEMENT_SET_NO": 999,
    "REV_AT_EPOCH": 59054,
    "BSTAR": 0.00029886,
    "MEAN_MOTION_DOT": 2.557e-05,
    "MEAN_MOTION_DDOT": 0
  },
  {
    "OBJECT_NAME": "DUCHIFAT-1",
    "OBJECT_ID": "2014-033M",
    "EPOCH": "2025-06-07T13:28:14.291328",
    "MEAN_MOTION": 15.28495361,
    "ECCENTRICITY": 0.0007265,
    "INCLINATION": 98.0945,
    "RA_OF_ASC_NODE": 172.7233,
    "ARG_OF_PERICENTER": 335.5831,
    "MEAN_ANOMALY": 24.5061,
    "EPHEMERIS_TYPE": 0,
    "CLASSIFICATION_TYPE": "U",
    "NORAD_CAT_ID": 40021,
    "ELEMENT_SET_NO": 999,
    "REV_AT_EPOCH": 59801,
    "BSTAR": 0.00062252,
    "MEAN_MOTION_DOT": 0.00017213,
    "MEAN_MOTION_DDOT": 0
  },
  {
    "OBJECT_NAME": "QB50P1",
    "OBJECT_ID": "2014-033R",
    "EPOCH": "2025-06-07T10:08:21.367392",
    "MEAN_MOTION": 15.10460345,
    "ECCENTRICITY": 0.0012096,
    "INCLINATION": 98.0821,
    "RA_OF_ASC_NODE": 140.8944,
    "ARG_OF_PERICENTER": 66.8537,
    "MEAN_ANOMALY": 293.3964,
    "EPHEMERIS_TYPE": 0,
    "CLASSIFICATION_TYPE": "U",
    "NORAD_CAT_ID": 40025,
    "ELEMENT_SET_NO": 999,
    "REV_AT_EPOCH": 59631,
    "BSTAR": 0.00037772,
    "MEAN_MOTION_DOT": 6.155e-05,
    "MEAN_MOTION_DDOT": 0
  },
  {
    "OBJECT_NAME": "LILACSAT-2",
    "OBJECT_ID": "2015-049K",
    "EPOCH": "2025-06-07T20:29:35.683008",
    "MEAN_MOTION": 15.38875478,
    "ECCENTRICITY": 0.001011,
    "INCLINATION": 97.5055,
    "RA_OF_ASC_NODE": 179.1583,
    "ARG_OF_PERICENTER": 156.5188,
    "MEAN_ANOMALY": 203.6521,
    "EPHEMERIS_TYPE": 0,
    "CLASSIFICATION_TYPE": "U",
    "NORAD_CAT_ID": 40908,
    "ELEMENT_SET_NO": 999,
    "REV_AT_EPOCH": 53796,
    "BSTAR": 0.00026116,
    "MEAN_MOTION_DOT": 9.976e-05,
    "MEAN_MOTION_DDOT": 0
  },
  {
    "OBJECT_NAME": "LAPAN-A2",
    "OBJECT_ID": "2015-052B",
    "EPOCH": "2025-05-31T04:27:33.271200",
    "MEAN_MOTION": 14.7880593,
    "ECCENTRICITY": 0.0012733,
    "INCLINATION": 6.0006,
    "RA_OF_ASC_NODE": 24.0987,
    "ARG_OF_PERICENTER": 338.8432,
    "MEAN_ANOMALY": 21.1169,
    "EPHEMERIS_TYPE": 0,
    "CLASSIFICATION_TYPE": "U",
    "NORAD_CAT_ID": 40931,
    "ELEMENT_SET_NO": 999,
    "REV_AT_EPOCH": 52304,
    "BSTAR": 7.8118e-05,
    "MEAN_MOTION_DOT": 1.241e-05,
    "MEAN_MOTION_DDOT": 0
  },
  {
    "OBJECT_NAME": "FOX-1A (AO-85)",
    "OBJECT_ID": "2015-058D",
    "EPOCH": "2025-06-07T13:59:50.916480",
    "MEAN_MOTION": 14.8800616,
    "ECCENTRICITY": 0.0161391,
    "INCLINATION": 64.7766,
    "RA_OF_ASC_NODE": 0.5977,
    "ARG_OF_PERICENTER": 196.139,
    "MEAN_ANOMALY": 163.4548,
    "EPHEMERIS_TYPE": 0,
    "CLASSIFICATION_TYPE": "U",
    "NORAD_CAT_ID": 40967,
    "ELEMENT_SET_NO": 999,
    "REV_AT_EPOCH": 5777,
    "BSTAR": 0.00024877,
    "MEAN_MOTION_DOT": 2.734e-05,
    "MEAN_MOTION_DDOT": 0
  },
  {
    "OBJECT_NAME": "CAS-2T & KS-1Q",
    "OBJECT_ID": "2016-066G",
    "EPOCH": "2025-06-07T19:27:00.383040",
    "MEAN_MOTION": 14.4347258,
    "ECCENTRICITY": 0.0346172,
    "INCLINATION": 98.42,
    "RA_OF_ASC_NODE": 233.2887,
    "ARG_OF_PERICENTER": 183.6667,
    "MEAN_ANOMALY": 176.198,
    "EPHEMERIS_TYPE": 0,
    "CLASSIFICATION_TYPE": "U",
    "NORAD_CAT_ID": 41847,
    "ELEMENT_SET_NO": 999,
    "REV_AT_EPOCH": 45076,
    "BSTAR": 0.00021181,
    "MEAN_MOTION_DOT": 1.43e-05,
    "MEAN_MOTION_DDOT": 0
  },
  {
    "OBJECT_NAME": "ZHUHAI-1 02 (CAS-4B)",
    "OBJECT_ID": "2017-034B",
    "EPOCH": "2025-06-07T20:53:20.443200",
    "MEAN_MOTION": 15.6312567,
    "ECCENTRICITY": 0.0021641,
    "INCLINATION": 43.0074,
    "RA_OF_ASC_NODE": 332.0709,
    "ARG_OF_PERICENTER": 279.2996,
    "MEAN_ANOMALY": 80.5422,
    "EPHEMERIS_TYPE": 0,
    "CLASSIFICATION_TYPE": "U",
    "NORAD_CAT_ID": 42759,
    "ELEMENT_SET_NO": 999,
    "REV_AT_EPOCH": 44233,
    "BSTAR": 0.00061705,
    "MEAN_MOTION_DOT": 0.00058562,
    "MEAN_MOTION_DDOT": 0
  },
  {
    "OBJECT_NAME": "ZHUHAI-1 01 (CAS-4A)",
    "OBJECT_ID": "2017-034D",
    "EPOCH": "2025-06-07T20:11:06.978336",
    "MEAN_MOTION": 15.6437607,
    "ECCENTRICITY": 0.0022862,
    "INCLINATION": 43.0112,
    "RA_OF_ASC_NODE": 329.4207,
    "ARG_OF_PERICENTER": 283.1098,
    "MEAN_ANOMALY": 76.7216,
    "EPHEMERIS_TYPE": 0,
    "CLASSIFICATION_TYPE": "U",
    "NORAD_CAT_ID": 42761,
    "ELEMENT_SET_NO": 999,
    "REV_AT_EPOCH": 44235,
    "BSTAR": 0.00063393,
    "MEAN_MOTION_DOT": 0.00063379,
    "MEAN_MOTION_DDOT": 0
  }
]