ZACUBE-1 (TSHEPISOSAT)  
1 39417U 13066B   25158.84795958  .00003707  00000+0  32355-3 0  9993
2 39417  97.7799 115.8696 0045945  58.9239 301.6479 14.96637274624655
GOMX-1                  
1 39430U 13066Q   25158.84965085  .00001518  00000+0  24230-3 0  9999
2 39430  97.6839  17.6209 0131933 197.3964 162.2700 14.67630437615154
CUBEBUG-2 (LO-74)       
1 39440U 13066AA  25158.79711178  .00002881  00000+0  29480-3 0  9992
2 39440  97.8495 103.3696 0061771 184.4669 175.6006 14.89924059622378
FUNCUBE-1 (AO-73)       
1 39444U 13066AE  25158.34902350  .00005649  00000+0  42356-3 0  9993
2 39444  97.7833 120.2541 0043752  37.5017 322.9246 15.02305890623251
UWE-3                   
1 39446U 13066AG  25158.59290203  .00003072  00000+0  29366-3 0  9993
2 39446  97.8227 109.5267 0054502 124.6724 235.9649 14.92879999621616
UNISAT-6                
1 40012U 14033C   25158.86310619  .00002557  00000+0  29886-3 0  9997
2 40012  97.7416 315.1024 0046985 219.0943 140.6874 14.85205148590540
DUCHIFAT-1              
1 40021U 14033M   25158.56127652  .00017213  00000+0  62252-3 0  9996
2 40021  98.0945 172.7233 0007265 335.5831  24.5061 15.28495361598012
QB50P1                  
1 40025U 14033R   25158.42246953  .00006155  00000+0  37772-3 0  9993
2 40025  98.0821 140.8944 0012096  66.8537 293.3964 15.10460345596313
LILACSAT-2              
1 40908U 15049K   25158.85388522  .00009976  00000+0  26116-3 0  9991
2 40908  97.5055 179.1583 0010110 156.5188 203.6521 15.38875478537960
LAPAN-A2                
1 40931U 15052B   25151.18580175  .00001241  00000+0  78118-4 0  9995
2 40931   6.0006  24.0987 0012733 338.8432  21.1169 14.78805930523047
FOX-1A (AO-85)          
1 40967U 15058D   25158.58322820  .00002734  00000+0  24877-3 0  9992
2 40967  64.7766   0.5977 0161391 196.1390 163.4548 14.88006160 57773
CAS-2T & KS-1Q          
1 41847U 16066G   25158.81042110  .00001430  00000+0  21181-3 0  9994
2 41847  98.4200 233.2887 0346172 183.6667 176.1980 14.43472580450764
ZHUHAI-1 02 (CAS-4B)    
1 42759U 17034B   25158.87037550  .00058562  00000+0  61705-3 0  9995
2 42759  43.0074 332.0709 0021641 279.2996  80.5422 15.63125670442332
ZHUHAI-1 01 (CAS-4A)    
1 42761U 17034D   25158.84105299  .00063379  00000+0  63393-3 0  9998
2 42761  43.0112 329.4207 0022862 283.1098  76.7216 15.64376070442357
